IRIDIUM 81 [P]          
1 25468U 98051B   18165.40075883  .00000290  00000-0  37732-4 0  9991
2 25468  86.4178 230.3964 0111663 358.9905   1.1068 14.72100469 34923
IRIDIUM 80 [+]          
1 25469U 98051C   18165.27848420  .00000136  00000-0  41506-4 0  9995
2 25469  86.3985 230.7054 0002564 106.8952 318.1879 14.34219974 34734
IRIDIUM 2 [-]           
1 25527U 98066A   18165.52567849  .00000715  00000-0  33836-4 0  9997
2 25527  85.5299 178.2283 0008514 182.2134 177.9070 15.17419814 72800
IRIDIUM 86 [+]          
1 25528U 98066B   18165.49082838 -.00000017  00000-0 -12962-4 0  9998
2 25528  86.3974 198.3173 0001611 107.0755 253.0618 14.34220844 31299
IRIDIUM 84 [+]          
1 25530U 98066D   18165.45276169 -.00000019  00000-0 -13796-4 0  9997
2 25530  86.3974 198.5039 0002276  86.3235 273.8221 14.34221797 28929
IRIDIUM 83 [+]          
1 25531U 98066E   18165.48447837 -.00000012  00000-0 -11368-4 0  9999
2 25531  86.3979 198.6311 0002315  87.5656 272.5804 14.34221438 26285
IRIDIUM 20 [B]          
1 25577U 98074A   18165.33279263  .00000139  00000-0  38871-4 0  9994
2 25577  86.4225 104.0492 0002340  65.1934 294.9508 14.38603283 20368
IRIDIUM 11 [B]          
1 25578U 98074B   18165.57200020  .00000126  00000-0  34678-4 0  9993
2 25578  86.4227 104.1681 0002714  64.8353  60.7467 14.38604562 29361
IRIDIUM 14 [+]          
1 25777U 99032A   18165.24880961  .00000172  00000-0  54425-4 0  9994
2 25777  86.3974  72.6461 0002057  83.7362 276.4068 14.34221010  6586
IRIDIUM 91 [+]          
1 27372U 02005A   18165.46496847  .00000045  00000-0  90944-5 0  9997
2 27372  86.3962 135.7989 0001958  79.2264 280.9152 14.34213724863557
IRIDIUM 90 [-]          
1 27373U 02005B   18165.52989231  .00084708  45928-6  42874-3 0  9998
2 27373  86.4313 192.2997 0286590 349.1905  10.3266 15.40947597864455
IRIDIUM 95 [+]          
1 27375U 02005D   18165.43323122  .00000003  00000-0 -60895-5 0  9999
2 27375  86.3959 135.8202 0002393  62.9650 297.1790 14.34216382862838
IRIDIUM 96 [-]          
1 27376U 02005E   18165.46396929  .00012621 -97090-6  13004-3 0  9996
2 27376  86.3775 156.5247 0286471 224.7948 132.9854 15.27237213869566
IRIDIUM 97 [B]          
1 27450U 02031A   18165.51599013  .00000012  00000-0 -26448-5 0  9991
2 27450  86.4232 167.5057 0002466  86.2168 273.9312 14.38600320842205
IRIDIUM 98 [+]          
1 27451U 02031B   18165.55131453  .00000135  00000-0  41125-4 0  9999
2 27451  86.3979 230.6626 0002061 102.9366 257.2060 14.34220240843249
